{
  "type": "FeatureCollection",
  "features": [
    {
      "type": "Feature",
      "properties": {
        "norad_id": 29268,
        "name": "ARIRANG-2 (KOMPSAT-2)",
        "group": "resource",
        "lat": -22.695276601506848,
        "lon": 5.042629446310087,
        "alt_km": 679.2826574921155,
        "timestamp": "2025-12-26T12:57:38.923471+00:00",
        "meta_object_name": "ARIRANG-2 (KOMPSAT-2)",
        "meta_object_id": "2006-031A",
        "meta_epoch": "2025-12-26T07:28:21.552384",
        "meta_mean_motion": 14.64504963,
        "meta_eccentricity": 0.00131205,
        "meta_inclination": 97.8259,
        "meta_ra_of_asc_node": 188.1226,
        "meta_arg_of_pericenter": 262.3169,
        "meta_mean_anomaly": 175.7272,
        "meta_ephemeris_type": 0,
        "meta_classification_type": "U",
        "meta_norad_cat_id": 29268,
        "meta_element_set_no": 999,
        "meta_rev_at_epoch": 3617,
        "meta_bstar": 6.4152597e-05,
        "meta_mean_motion_dot": 2.95e-06,
        "meta_mean_motion_ddot": 0,
        "tle_line1": "1 29268U 06031A   25360.31136056  .00000295  00000+0  64153-4 0  9996",
        "tle_line2": "2 29268  97.8259 188.1226 0013120 262.3169 175.7272 14.64504963 36173"
      },
      "geometry": {
        "type": "Point",
        "coordinates": [
          5.042629446310087,
          -22.695276601506848
        ]
      }
    },
    {
      "type": "Feature",
      "properties": {
        "norad_id": 29709,
        "name": "LAPAN-TUBSAT",
        "group": "resource",
        "lat": 69.51729893353313,
        "lon": -166.5282644091539,
        "alt_km": 602.439937785166,
        "timestamp": "2025-12-26T12:57:38.923482+00:00",
        "meta_object_name": "LAPAN-TUBSAT",
        "meta_object_id": "2007-001A",
        "meta_epoch": "2025-12-26T06:00:29.422656",
        "meta_mean_motion": 14.8568972,
        "meta_eccentricity": 0.00131181,
        "meta_inclination": 98.1267,
        "meta_ra_of_asc_node": 350.6851,
        "meta_arg_of_pericenter": 33.7953,
        "meta_mean_anomaly": 326.4095,
        "meta_ephemeris_type": 0,
        "meta_classification_type": "U",
        "meta_norad_cat_id": 29709,
        "meta_element_set_no": 999,
        "meta_rev_at_epoch": 2547,
        "meta_bstar": 8.7819197e-05,
        "meta_mean_motion_dot": 7.05e-06,
        "meta_mean_motion_ddot": 0,
        "tle_line1": "1 29709U 07001A   25360.25034054  .00000705  00000+0  87819-4 0  9992",
        "tle_line2": "2 29709  98.1267 350.6851 0013118  33.7953 326.4095 14.85689720 25471"
      },
      "geometry": {
        "type": "Point",
        "coordinates": [
          -166.5282644091539,
          69.51729893353313
        ]
      }
    },
    {
      "type": "Feature",
      "properties": {
        "norad_id": 31113,
        "name": "HAIYANG-1B",
        "group": "resource",
        "lat": 19.958603591768643,
        "lon": 167.30007474431366,
        "alt_km": 797.7314953895957,
        "timestamp": "2025-12-26T12:57:38.923492+00:00",
        "meta_object_name": "HAIYANG-1B",
        "meta_object_id": "2007-010A",
        "meta_epoch": "2025-12-25T22:47:30.795072",
        "meta_mean_motion": 14.30969243,
        "meta_eccentricity": 0.0013551,
        "meta_inclination": 98.3331,
        "meta_ra_of_asc_node": 343.6829,
        "meta_arg_of_pericenter": 359.9847,
        "meta_mean_anomaly": 0.1334,
        "meta_ephemeris_type": 0,
        "meta_classification_type": "U",
        "meta_norad_cat_id": 31113,
        "meta_element_set_no": 999,
        "meta_rev_at_epoch": 97585,
        "meta_bstar": 6.0325e-05,
        "meta_mean_motion_dot": 1.17e-06,
        "meta_mean_motion_ddot": 0,
        "tle_line1": "1 31113U 07010A   25359.94966198  .00000117  00000+0  60325-4 0  9991",
        "tle_line2": "2 31113  98.3331 343.6829 0013551 359.9847   0.1334 14.30969243975859"
      },
      "geometry": {
        "type": "Point",
        "coordinates": [
          167.30007474431366,
          19.958603591768643
        ]
      }
    },
    {
      "type": "Feature",
      "properties": {
        "norad_id": 31598,
        "name": "COSMO-SKYMED 1",
        "group": "resource",
        "lat": -27.14249946679644,
        "lon": 1.9567932226227291,
        "alt_km": 586.0121498045573,
        "timestamp": "2025-12-26T12:57:38.923503+00:00",
        "meta_object_name": "COSMO-SKYMED 1",
        "meta_object_id": "2007-023A",
        "meta_epoch": "2025-12-26T07:13:14.584800",
        "meta_mean_motion": 14.95864,
        "meta_eccentricity": 0.00011607,
        "meta_inclination": 97.8839,
        "meta_ra_of_asc_node": 185.7898,
        "meta_arg_of_pericenter": 77.5409,
        "meta_mean_anomaly": 282.5941,
        "meta_ephemeris_type": 0,
        "meta_classification_type": "U",
        "meta_norad_cat_id": 31598,
        "meta_element_set_no": 999,
        "meta_rev_at_epoch": 393,
        "meta_bstar": 0.00029764685,
        "meta_mean_motion_dot": 3.268e-05,
        "meta_mean_motion_ddot": 0,
        "tle_line1": "1 31598U 07023A   25360.30086325  .00003268  00000+0  29765-3 0  9991",
        "tle_line2": "2 31598  97.8839 185.7898 0001160  77.5409 282.5941 14.95864000  3931"
      },
      "geometry": {
        "type": "Point",
        "coordinates": [
          1.9567932226227291,
          -27.14249946679644
        ]
      }
    },
    {
      "type": "Feature",
      "properties": {
        "norad_id": 31698,
        "name": "TERRASAR-X",
        "group": "resource",
        "lat": -58.982593324320405,
        "lon": 18.279579407615007,
        "alt_km": 516.461485164522,
        "timestamp": "2025-12-26T12:57:38.923513+00:00",
        "meta_object_name": "TERRASAR-X",
        "meta_object_id": "2007-026A",
        "meta_epoch": "2025-12-25T13:30:40.378176",
        "meta_mean_motion": 15.19155603,
        "meta_eccentricity": 0.0001851,
        "meta_inclination": 97.4447,
        "meta_ra_of_asc_node": 4.756,
        "meta_arg_of_pericenter": 79.9289,
        "meta_mean_anomaly": 280.2154,
        "meta_ephemeris_type": 0,
        "meta_classification_type": "U",
        "meta_norad_cat_id": 31698,
        "meta_element_set_no": 999,
        "meta_rev_at_epoch": 2686,
        "meta_bstar": 7.0738e-05,
        "meta_mean_motion_dot": 1.419e-05,
        "meta_mean_motion_ddot": 0,
        "tle_line1": "1 31698U 07026A   25359.56296734  .00001419  00000+0  70738-4 0  9991",
        "tle_line2": "2 31698  97.4447   4.7560 0001851  79.9289 280.2154 15.19155603 26865"
      },
      "geometry": {
        "type": "Point",
        "coordinates": [
          18.279579407615007,
          -58.982593324320405
        ]
      }
    },
    {
      "type": "Feature",
      "properties": {
        "norad_id": 32060,
        "name": "WORLDVIEW-1 (WV-1)",
        "group": "resource",
        "lat": -18.885509167091538,
        "lon": -64.72427262953295,
        "alt_km": 500.869256979021,
        "timestamp": "2025-12-26T12:57:38.923524+00:00",
        "meta_object_name": "WORLDVIEW-1 (WV-1)",
        "meta_object_id": "2007-041A",
        "meta_epoch": "2025-12-26T07:21:46.694880",
        "meta_mean_motion": 15.23977032,
        "meta_eccentricity": 0.00030663,
        "meta_inclination": 97.3819,
        "meta_ra_of_asc_node": 117.5881,
        "meta_arg_of_pericenter": 350.484,
        "meta_mean_anomaly": 9.6339,
        "meta_ephemeris_type": 0,
        "meta_classification_type": "U",
        "meta_norad_cat_id": 32060,
        "meta_element_set_no": 999,
        "meta_rev_at_epoch": 1654,
        "meta_bstar": 0.0003338713,
        "meta_mean_motion_dot": 8.014e-05,
        "meta_mean_motion_ddot": 0,
        "tle_line1": "1 32060U 07041A   25360.30679045  .00008014  00000+0  33387-3 0  9992",
        "tle_line2": "2 32060  97.3819 117.5881 0003066 350.4840   9.6339 15.23977032 16545"
      },
      "geometry": {
        "type": "Point",
        "coordinates": [
          -64.72427262953295,
          -18.885509167091538
        ]
      }
    },
    {
      "type": "Feature",
      "properties": {
        "norad_id": 32289,
        "name": "YAOGAN-3",
        "group": "resource",
        "lat": 56.4618782815134,
        "lon": -140.96896497467011,
        "alt_km": 592.0956793503483,
        "timestamp": "2025-12-26T12:57:38.923534+00:00",
        "meta_object_name": "YAOGAN-3",
        "meta_object_id": "2007-055A",
        "meta_epoch": "2025-12-26T07:34:36.796224",
        "meta_mean_motion": 14.89926493,
        "meta_eccentricity": 0.00012665,
        "meta_inclination": 97.8357,
        "meta_ra_of_asc_node": 26.8177,
        "meta_arg_of_pericenter": 83.2474,
        "meta_mean_anomaly": 276.8887,
        "meta_ephemeris_type": 0,
        "meta_classification_type": "U",
        "meta_norad_cat_id": 32289,
        "meta_element_set_no": 999,
        "meta_rev_at_epoch": 98011,
        "meta_bstar": 0.00043280614,
        "meta_mean_motion_dot": 4.111e-05,
        "meta_mean_motion_ddot": 0,
        "tle_line1": "1 32289U 07055A   25360.31570366  .00004111  00000+0  43281-3 0  9995",
        "tle_line2": "2 32289  97.8357  26.8177 0001266  83.2474 276.8887 14.89926493980119"
      },
      "geometry": {
        "type": "Point",
        "coordinates": [
          -140.96896497467011,
          56.4618782815134
        ]
      }
    }
  ]
}